NORAD_CAT_ID,OBJECT_NAME,OBJECT_TYPE,EPOCH,MEAN_MOTION,ECCENTRICITY,INCLINATION,RA_OF_ASC_NODE,ARG_OF_PERICENTER,MEAN_ANOMALY,BSTAR,MEAN_MOTION_DOT,MEAN_MOTION_DDOT,TLE_LINE0,TLE_LINE1,TLE_LINE2,SEMIMAJOR_AXIS,PERIOD,APOGEE,PERIGEE,DECAYED
55940.0,STARLINK-5864,PAYLOAD,2024-01-08 17:45:04,14.98321476,0.0002005,70.0009,118.7204,261.3787,98.7145,0.00017807,2.032e-05,0.0,0 STARLINK-5864,1 55940U 23037AC  24008.73963175  .00002032  00000-0  17807-3 0  9996,2 55940  70.0009 118.7204 0002005 261.3787  98.7145 14.98321476 45508,6950.219,96.108,573.478,570.691,0.0
55940.0,STARLINK-5864,PAYLOAD,2024-01-09 11:22:32,14.98332343,0.000274,70.0007,116.8687,257.8452,102.24,1.2713e-05,5.9e-07,0.0,0 STARLINK-5864,1 55940U 23037AC  24009.47398576  .00000059  00000-0  12713-4 0  9994,2 55940  70.0007 116.8687 0002740 257.8452 102.2400 14.98332343 45954,6950.186,96.107,573.955,570.146,0.0
55940.0,STARLINK-5864,PAYLOAD,2024-01-09 14:34:48,14.98335332,0.000272,70.0012,116.534,251.4987,108.5877,2.5891e-05,2.16e-06,0.0,0 STARLINK-5864,1 55940U 23037AC  24009.60750333  .00000216  00000-0  25891-4 0  9998,2 55940  70.0012 116.5340 0002720 251.4987 108.5877 14.98335332 45637,6950.176,96.107,573.932,570.151,0.0
55940.0,STARLINK-5864,PAYLOAD,2024-01-09 16:10:56,14.98334698,0.0002739,70.0007,116.3643,259.7876,100.2974,2.1988e-05,1.69e-06,0.0,0 STARLINK-5864,1 55940U 23037AC  24009.67426395  .00000169  00000-0  21988-4 0  9993,2 55940  70.0007 116.3643 0002739 259.7876 100.2974 14.98334698 45645,6950.178,96.107,573.947,570.14,0.0
55940.0,STARLINK-5864,PAYLOAD,2024-01-10 11:24:33,14.98328233,0.0002743,70.0007,114.3439,256.7963,103.289,5.6119e-06,-2.6e-07,0.0,0 STARLINK-5864,1 55940U 23037AC  24010.47538671 -.00000026  00000-0  56119-5 0  9992,2 55940  70.0007 114.3439 0002743 256.7963 103.2890 14.98328233 46105,6950.198,96.107,573.97,570.157,0.0
55940.0,STARLINK-5864,PAYLOAD,2024-01-11 11:26:34,14.98332571,0.0002916,70.0002,111.8183,267.4806,92.6019,1.6785e-05,1.07e-06,0.0,0 STARLINK-5864,1 55940U 23037AC  24011.47678316  .00000107  00000-0  16785-4 0  9997,2 55940  70.0002 111.8183 0002916 267.4806  92.6019 14.98332571 46255,6950.185,96.107,574.077,570.023,0.0
55940.0,STARLINK-5864,PAYLOAD,2024-01-11 14:38:49,14.98337913,0.0002854,70.0,111.4816,264.6161,95.4672,4.5646e-05,4.52e-06,0.0,0 STARLINK-5864,1 55940U 23037AC  24011.61029839  .00000452  00000-0  45646-4 0  9994,2 55940  70.0000 111.4816 0002854 264.6161  95.4672 14.98337913 45931,6950.168,96.106,574.017,570.05,0.0
55940.0,STARLINK-5864,PAYLOAD,2024-01-11 16:14:57,14.9833939,0.0002849,70.0001,111.3137,264.6813,95.4021,6.0473e-05,6.29e-06,0.0,0 STARLINK-5864,1 55940U 23037AC  24011.67705673  .00000629  00000-0  60473-4 0  9998,2 55940  70.0001 111.3137 0002849 264.6813  95.4021 14.98339390 46283,6950.164,96.106,574.009,570.049,0.0
55940.0,STARLINK-5864,PAYLOAD,2024-01-12 09:52:27,14.98321821,0.0002387,70.0028,109.4676,242.2528,117.8389,-1.4669e-05,-2.68e-06,0.0,0 STARLINK-5864,1 55940U 23037AC  24012.41143081 -.00000268  00000-0 -14669-4 0  9997,2 55940  70.0028 109.4676 0002387 242.2528 117.8389 14.98321821 46398,6950.218,96.108,573.742,570.424,0.0
55940.0,STARLINK-5864,PAYLOAD,2024-01-12 14:40:52,14.98318623,0.0002392,70.0024,108.9611,235.5634,124.53,-4.2286e-05,-5.97e-06,0.0,0 STARLINK-5864,1 55940U 23037AC  24012.61171406 -.00000597  00000-0 -42286-4 0  9992,2 55940  70.0024 108.9611 0002392 235.5634 124.5300 14.98318623 46086,6950.228,96.108,573.756,570.431,0.0
55940.0,STARLINK-5864,PAYLOAD,2024-01-12 16:17:00,14.98318237,0.0002369,70.0021,108.7921,240.5406,119.5516,-5.2181e-05,-7.15e-06,0.0,0 STARLINK-5864,1 55940U 23037AC  24012.67847518 -.00000715  00000-0 -52181-4 0  9999,2 55940  70.0021 108.7921 0002369 240.5406 119.5516 14.98318237 46097,6950.229,96.108,573.741,570.448,0.0
55940.0,STARLINK-5864,PAYLOAD,2024-01-13 11:30:36,14.9833042,0.0002775,70.0005,106.7701,266.3318,93.7524,-1.3214e-05,-2.51e-06,0.0,0 STARLINK-5864,1 55940U 23037AC  24013.47958753 -.00000251  00000-0 -13214-4 0  9991,2 55940  70.0005 106.7701 0002775 266.3318  93.7524 14.98330420 46553,6950.192,96.107,573.985,570.128,0.0
55940.0,STARLINK-5864,PAYLOAD,2024-01-13 14:42:52,14.98335082,0.0002721,70.0005,106.4342,259.6349,100.4503,8.8402e-06,1.3e-07,0.0,0 STARLINK-5864,1 55940U 23037AC  24013.61310325  .00000013  00000-0  88402-5 0  9990,2 55940  70.0005 106.4342 0002721 259.6349 100.4503 14.98335082 46238,6950.177,96.107,573.933,570.151,0.0
55940.0,STARLINK-5864,PAYLOAD,2024-01-13 16:19:00,14.9833552,0.0002708,70.0004,106.2647,263.2094,96.8757,2.1753e-05,1.67e-06,0.0,0 STARLINK-5864,1 55940U 23037AC  24013.67986273  .00000167  00000-0  21753-4 0  9992,2 55940  70.0004 106.2647 0002708 263.2094  96.8757 14.98335520 46580,6950.176,96.107,573.923,570.159,0.0
55940.0,STARLINK-5864,PAYLOAD,2024-01-14 11:32:37,14.98325944,0.0002603,70.0007,104.2446,264.0635,96.0227,7.2339e-05,7.7e-06,0.0,0 STARLINK-5864,1 55940U 23037AC  24014.48098805  .00000770  00000-0  72339-4 0  9993,2 55940  70.0007 104.2446 0002603 264.0635  96.0227 14.98325944 46709,6950.205,96.107,573.88,570.261,0.0
55940.0,STARLINK-5864,PAYLOAD,2024-01-14 14:44:53,14.98328662,0.000255,70.0008,103.908,264.2861,95.8007,0.00010165,1.12e-05,0.0,0 STARLINK-5864,1 55940U 23037AC  24014.61450572  .00001120  00000-0  10165-3 0  9999,2 55940  70.0008 103.9080 0002550 264.2861  95.8007 14.98328662 46381,6950.197,96.107,573.834,570.29,0.0
55940.0,STARLINK-5864,PAYLOAD,2024-01-14 16:21:01,14.98330107,0.0002552,70.0008,103.7394,262.783,97.3039,0.000116,1.291e-05,0.0,0 STARLINK-5864,1 55940U 23037AC  24014.68126431  .00001291  00000-0  11600-3 0  9994,2 55940  70.0008 103.7394 0002552 262.7830  97.3039 14.98330107 46398,6950.193,96.107,573.831,570.284,0.0
55940.0,STARLINK-5864,PAYLOAD,2024-01-15 11:34:37,14.98335265,0.0002505,70.001,101.7196,259.8434,100.2443,3.1927e-05,2.88e-06,0.0,0 STARLINK-5864,1 55940U 23037AC  24015.48238100  .00000288  00000-0  31927-4 0  9990,2 55940  70.0010 101.7196 0002505 259.8434 100.2443 14.98335265 46858,6950.177,96.107,573.783,570.301,0.0
55940.0,STARLINK-5864,PAYLOAD,2024-01-15 14:46:53,14.98334768,0.0002516,70.001,101.3831,261.2739,98.8135,2.3382e-05,1.86e-06,0.0,0 STARLINK-5864,1 55940U 23037AC  24015.61590116  .00000186  00000-0  23382-4 0  9996,2 55940  70.0010 101.3831 0002516 261.2739  98.8135 14.98334768 46539,6950.178,96.107,573.792,570.294,0.0
55940.0,STARLINK-5864,PAYLOAD,2024-01-16 11:36:39,14.98323717,0.000254,70.0014,99.1952,254.1443,105.9436,-8.2014e-05,-1.071e-05,0.0,0 STARLINK-5864,1 55940U 23037AC  24016.48379028 -.00001071  00000-0 -82014-4 0  9992,2 55940  70.0014  99.1952 0002540 254.1443 105.9436 14.98323717 47000,6950.212,96.107,573.843,570.312,0.0
55940.0,STARLINK-5864,PAYLOAD,2024-01-16 14:48:55,14.98322737,0.0002553,70.0014,98.8587,255.3163,104.7714,-9.163e-05,-1.186e-05,0.0,0 STARLINK-5864,1 55940U 23037AC  24016.61731175 -.00001186  00000-0 -91630-4 0  9993,2 55940  70.0014  98.8587 0002553 255.3163 104.7714 14.98322737 46686,6950.215,96.107,573.855,570.306,0.0
55940.0,STARLINK-5864,PAYLOAD,2024-01-17 11:38:40,14.98324783,0.0002653,70.0015,96.6713,249.3238,110.7636,-7.3896e-05,-9.74e-06,0.0,0 STARLINK-5864,1 55940U 23037AC  24017.48519163 -.00000974  00000-0 -73896-4 0  9998,2 55940  70.0015  96.6713 0002653 249.3238 110.7636 14.98324783 47157,6950.209,96.107,573.918,570.23,0.0
55940.0,STARLINK-5864,PAYLOAD,2024-01-17 14:50:56,14.98324514,0.0002658,70.0014,96.3346,250.6257,109.4615,-7.5098e-05,-9.89e-06,0.0,0 STARLINK-5864,1 55940U 23037AC  24017.61871240 -.00000989  00000-0 -75098-4 0  9992,2 55940  70.0014  96.3346 0002658 250.6257 109.4615 14.98324514 46834,6950.21,96.107,573.922,570.227,0.0
55940.0,STARLINK-5864,PAYLOAD,2024-01-18 11:40:40,14.98332699,0.0002952,70.0004,94.1447,262.3048,97.7776,0.00014513,1.639e-05,0.0,0 STARLINK-5864,1 55940U 23037AC  24018.48658137  .00001639  00000-0  14513-3 0  9991,2 55940  70.0004  94.1447 0002952 262.3048  97.7776 14.98332699 47309,6950.185,96.107,574.101,569.998,0.0
55940.0,STARLINK-5864,PAYLOAD,2024-01-18 13:16:48,14.98335202,0.0002909,70.0005,93.9764,260.5122,99.5708,0.00017219,1.962e-05,0.0,0 STARLINK-5864,1 55940U 23037AC  24018.55333878  .00001962  00000-0  17219-3 0  9996,2 55940  70.0005  93.9764 0002909 260.5122  99.5708 14.98335202 46974,6950.177,96.107,574.064,570.02,0.0
55940.0,STARLINK-5864,PAYLOAD,2024-01-18 14:52:56,14.9833658,0.0002906,70.0005,93.8083,260.3819,99.7012,0.00018328,2.095e-05,0.0,0 STARLINK-5864,1 55940U 23037AC  24018.62009739  .00002095  00000-0  18328-3 0  9990,2 55940  70.0005  93.8083 0002906 260.3819  99.7012 14.98336580 46986,6950.173,96.107,574.057,570.018,0.0
55940.0,STARLINK-5864,PAYLOAD,2024-01-19 11:42:42,14.98324721,0.0002464,70.0015,91.6201,251.2981,108.7911,8.7118e-05,9.47e-06,0.0,0 STARLINK-5864,1 55940U 23037AC  24019.48798714  .00000947  00000-0  87118-4 0  9991,2 55940  70.0015  91.6201 0002464 251.2981 108.7911 14.98324721 47459,6950.209,96.107,573.787,570.362,0.0
55940.0,STARLINK-5864,PAYLOAD,2024-01-19 13:18:50,14.98325334,0.0002435,70.0015,91.4518,250.1681,109.9216,9.2764e-05,1.014e-05,0.0,0 STARLINK-5864,1 55940U 23037AC  24019.55474667  .00001014  00000-0  92764-4 0  9996,2 55940  70.0015  91.4518 0002435 250.1681 109.9216 14.98325334 47127,6950.207,96.107,573.765,570.38,0.0
55940.0,STARLINK-5864,PAYLOAD,2024-01-19 14:54:58,14.98325654,0.0002389,70.0015,91.2834,247.5678,112.5228,8.9007e-05,9.69e-06,0.0,0 STARLINK-5864,1 55940U 23037AC  24019.62150668  .00000969  00000-0  89007-4 0  9990,2 55940  70.0015  91.2834 0002389 247.5678 112.5228 14.98325654 47139,6950.206,96.107,573.732,570.411,0.0
55940.0,STARLINK-5864,PAYLOAD,2024-01-20 11:44:42,14.98331488,0.0002587,70.0011,89.0953,260.5099,99.5768,-6.2595e-05,-8.4e-06,0.0,0 STARLINK-5864,1 55940U 23037AC  24020.48938531 -.00000840  00000-0 -62595-4 0  9992,2 55940  70.0011  89.0953 0002587 260.5099  99.5768 14.98331488 47601,6950.188,96.107,573.851,570.255,0.0
